0 COSMOS 1823 DEB
1 18737U 87020Q   13282.73755959  .00000003  00000-0  14574-3 0  4597
2 18737 073.6025 138.4403 0027616 029.9982 038.6369 12.41418456169800
0 COSMOS 1823 DEB
1 18737U 87020Q   13286.77927023  .00000011  00000-0  20924-3 0  4616
2 18737 073.6018 133.0173 0027706 024.1542 101.5292 12.41418529170309
0 COSMOS 1823 DEB
1 18737U 87020Q   13289.04509622 -.00000015  00000-0  17873-4 0  4626
2 18737 073.6016 129.9771 0027747 020.8929 147.7646 12.41418998170587
0 COSMOS 1823 DEB
1 18737U 87020Q   13291.04843308 -.00000022  00000-0 -35899-4 0  4639
2 18737 073.6017 127.2891 0027785 018.0341 100.8847 12.41419325170837
0 COSMOS 1823 DEB
1 18737U 87020Q   13293.52622368 -.00000011  00000-0  47275-4 0  4644
2 18737 073.6020 123.9644 0027819 014.5045 014.3840 12.41419161171145
0 COSMOS 1823 DEB
1 18737U 87020Q   13295.54147781  .00000011  00000-0  20868-3 0  4657
2 18737 073.6020 121.2603 0027842 011.6056 020.7888 12.41418892171397
